start=new Date('2022-12-20T00:00:00.000Z').valueOf();
sats=[{"TIME_SYSTEM":"UTC","REF_FRAME":"TEME","MEAN_MOTION_DDOT":"0.0000000000000","RA_OF_ASC_NODE":"305.2134","LAUNCH_DATE":"2020-06-04","REV_AT_EPOCH":"14150","CENTER_NAME":"EARTH","DECAY_DATE":null,"ECCENTRICITY":"0.00015890","MEAN_MOTION_DOT":"0.00000144","MEAN_MOTION":"15.06415856","GP_ID":"220964915","FILE":"3711774","PERIAPSIS":"546.065","CLASSIFICATION_TYPE":"U","COUNTRY_CODE":"US","MEAN_ANOMALY":"293.0866","TLE_LINE2":"2 45661  53.0558 305.2134 0001589  67.0290 293.0866 15.06415856141501","EPHEMERIS_TYPE":"0","OBJECT_ID":"2020-035E","SEMIMAJOR_AXIS":"6925.300","TLE_LINE1":"1 45661U 20035E   22353.84238381  .00000144  00000-0  28591-4 0  9992","SITE":"AFETR","INCLINATION":"53.0558","RCS_SIZE":"LARGE","ELEMENT_SET_NO":"999","PERIOD":"95.591","MEAN_ELEMENT_THEORY":"SGP4","OBJECT_NAME":"STARLINK-1444","OBJECT_TYPE":"PAYLOAD","BSTAR":"0.00002859100000","EPOCH":"2022-12-19T20:13:01.961184","ARG_OF_PERICENTER":"67.0290","NORAD_CAT_ID":"45661","APOAPSIS":"548.265"},{"REV_AT_EPOCH":"14146","CENTER_NAME":"EARTH","LAUNCH_DATE":"2020-06-04","RA_OF_ASC_NODE":"306.3392","MEAN_MOTION_DDOT":"0.0000000000000","REF_FRAME":"TEME","TIME_SYSTEM":"UTC","OBJECT_ID":"2020-035F","SEMIMAJOR_AXIS":"6925.364","EPHEMERIS_TYPE":"0","MEAN_ANOMALY":"300.3013","COUNTRY_CODE":"US","TLE_LINE2":"2 45662  53.0562 306.3392 0001839  59.8158 300.3013 15.06394938141463","CLASSIFICATION_TYPE":"U","MEAN_MOTION_DOT":"0.00004383","MEAN_MOTION":"15.06394938","GP_ID":"220965165","FILE":"3711774","PERIAPSIS":"545.955","ECCENTRICITY":"0.00018390","DECAY_DATE":null,"PERIOD":"95.592","MEAN_ELEMENT_THEORY":"SGP4","OBJECT_NAME":"STARLINK-1445","RCS_SIZE":"LARGE","ELEMENT_SET_NO":"999","INCLINATION":"53.0562","SITE":"AFETR","TLE_LINE1":"1 45662U 20035F   22353.59175404  .00004383  00000-0  31298-3 0  9997","NORAD_CAT_ID":"45662","APOAPSIS":"548.503","EPOCH":"2022-12-19T14:12:07.549056","ARG_OF_PERICENTER":"59.8158","BSTAR":"0.00031298000000","OBJECT_TYPE":"PAYLOAD"},{"ELEMENT_SET_NO":"999","RCS_SIZE":"LARGE","MEAN_ELEMENT_THEORY":"SGP4","OBJECT_NAME":"STARLINK-1446","PERIOD":"95.592","TLE_LINE1":"1 45663U 20035G   22353.86081650  .00002670  00000-0  19801-3 0  9990","SITE":"AFETR","INCLINATION":"53.0567","BSTAR":"0.00019801000000","OBJECT_TYPE":"PAYLOAD","ARG_OF_PERICENTER":"69.5986","EPOCH":"2022-12-19T20:39:34.545600","NORAD_CAT_ID":"45663","APOAPSIS":"548.198","MEAN_MOTION_DDOT":"0.0000000000000","RA_OF_ASC_NODE":"305.1102","REF_FRAME":"TEME","LAUNCH_DATE":"2020-06-04","CENTER_NAME":"EARTH","REV_AT_EPOCH":"14150","TIME_SYSTEM":"UTC","TLE_LINE2":"2 45663  53.0567 305.1102 0001449  69.5986 290.5159 15.06406276141504","MEAN_ANOMALY":"290.5159","COUNTRY_CODE":"US","EPHEMERIS_TYPE":"0","SEMIMAJOR_AXIS":"6925.329","OBJECT_ID":"2020-035G","DECAY_DATE":null,"ECCENTRICITY":"0.00014490","MEAN_MOTION":"15.06406276","GP_ID":"220965912","FILE":"3711774","PERIAPSIS":"546.191","MEAN_MOTION_DOT":"0.00002670","CLASSIFICATION_TYPE":"U"},{"ECCENTRICITY":"0.00019240","DECAY_DATE":null,"CLASSIFICATION_TYPE":"U","GP_ID":"220931001","MEAN_MOTION":"15.06401221","FILE":"3711365","PERIAPSIS":"545.877","MEAN_MOTION_DOT":"0.00006104","TLE_LINE2":"2 45665  53.0538 307.6650 0001924  65.2007 294.9182 15.06401221141413","MEAN_ANOMALY":"294.9182","COUNTRY_CODE":"US","SEMIMAJOR_AXIS":"6925.345","OBJECT_ID":"2020-035J","EPHEMERIS_TYPE":"0","TIME_SYSTEM":"UTC","LAUNCH_DATE":"2020-06-04","MEAN_MOTION_DDOT":"0.0000000000000","REF_FRAME":"TEME","RA_OF_ASC_NODE":"307.6650","REV_AT_EPOCH":"14141","CENTER_NAME":"EARTH","BSTAR":"0.00042828000000","OBJECT_TYPE":"PAYLOAD","APOAPSIS":"548.542","NORAD_CAT_ID":"45665","ARG_OF_PERICENTER":"65.2007","EPOCH":"2022-12-19T07:07:30.405216","SITE":"AFETR","TLE_LINE1":"1 45665U 20035J   22353.29687969  .00006104  00000-0  42828-3 0  9995","INCLINATION":"53.0538","OBJECT_NAME":"STARLINK-1448","MEAN_ELEMENT_THEORY":"SGP4","PERIOD":"95.592","ELEMENT_SET_NO":"999","RCS_SIZE":"LARGE"},{"PERIOD":"95.592","OBJECT_NAME":"STARLINK-1449","MEAN_ELEMENT_THEORY":"SGP4","RCS_SIZE":"LARGE","ELEMENT_SET_NO":"999","INCLINATION":"53.0539","SITE":"AFETR","TLE_LINE1":"1 45666U 20035K   22353.56594353  .00003564  00000-0  25802-3 0  9990","NORAD_CAT_ID":"45666","APOAPSIS":"548.033","EPOCH":"2022-12-19T13:34:57.520992","ARG_OF_PERICENTER":"67.2182","OBJECT_TYPE":"PAYLOAD","BSTAR":"0.00025802000000","CENTER_NAME":"EARTH","REV_AT_EPOCH":"14145","LAUNCH_DATE":"2020-06-04","MEAN_MOTION_DDOT":"0.0000000000000","RA_OF_ASC_NODE":"306.4216","REF_FRAME":"TEME","TIME_SYSTEM":"UTC","OBJECT_ID":"2020-035K","SEMIMAJOR_AXIS":"6925.352","EPHEMERIS_TYPE":"0","MEAN_ANOMALY":"292.8931","COUNTRY_CODE":"US","TLE_LINE2":"2 45666  53.0539 306.4216 0001177  67.2182 292.8931 15.06398750141451","CLASSIFICATION_TYPE":"U","MEAN_MOTION_DOT":"0.00003564","GP_ID":"220964415","MEAN_MOTION":"15.06398750","FILE":"3711774","PERIAPSIS":"546.402","ECCENTRICITY":"0.00011770","DECAY_DATE":null},{"DECAY_DATE":null,"ECCENTRICITY":"0.00016460","MEAN_MOTION_DOT":"0.00002623","GP_ID":"220965666","MEAN_MOTION":"15.06404626","FILE":"3711774","PERIAPSIS":"546.059","CLASSIFICATION_TYPE":"U","COUNTRY_CODE":"US","MEAN_ANOMALY":"295.6148","TLE_LINE2":"2 45667  53.0564 306.4704 0001646  64.5012 295.6148 15.06404626141456","EPHEMERIS_TYPE":"0","OBJECT_ID":"2020-035L","SEMIMAJOR_AXIS":"6925.334","TIME_SYSTEM":"UTC","RA_OF_ASC_NODE":"306.4704","MEAN_MOTION_DDOT":"0.0000000000000","REF_FRAME":"TEME","LAUNCH_DATE":"2020-06-04","CENTER_NAME":"EARTH","REV_AT_EPOCH":"14145","OBJECT_TYPE":"PAYLOAD","BSTAR":"0.00019490000000","EPOCH":"2022-12-19T13:38:54.504096","ARG_OF_PERICENTER":"64.5012","NORAD_CAT_ID":"45667","APOAPSIS":"548.339","TLE_LINE1":"1 45667U 20035L   22353.56868639  .00002623  00000-0  19490-3 0  9993","SITE":"AFETR","INCLINATION":"53.0564","RCS_SIZE":"LARGE","ELEMENT_SET_NO":"999","PERIOD":"95.592","OBJECT_NAME":"STARLINK-1450","MEAN_ELEMENT_THEORY":"SGP4"},{"COUNTRY_CODE":"US","MEAN_ANOMALY":"304.9932","TLE_LINE2":"2 45668  53.0552 305.1025 0001758  55.1222 304.9932 15.06412461141517","EPHEMERIS_TYPE":"0","OBJECT_ID":"2020-035M","SEMIMAJOR_AXIS":"6925.310","DECAY_DATE":null,"ECCENTRICITY":"0.00017580","MEAN_MOTION_DOT":"0.00001273","PERIAPSIS":"545.958","GP_ID":"220965412","FILE":"3711774","MEAN_MOTION":"15.06412461","CLASSIFICATION_TYPE":"U","MEAN_MOTION_DDOT":"0.0000000000000","RA_OF_ASC_NODE":"305.1025","REF_FRAME":"TEME","LAUNCH_DATE":"2020-06-04","CENTER_NAME":"EARTH","REV_AT_EPOCH":"14151","TIME_SYSTEM":"UTC","BSTAR":"0.00010429000000","OBJECT_TYPE":"PAYLOAD","EPOCH":"2022-12-19T20:48:49.529952","ARG_OF_PERICENTER":"55.1222","APOAPSIS":"548.393","NORAD_CAT_ID":"45668","RCS_SIZE":"LARGE","ELEMENT_SET_NO":"999","PERIOD":"95.591","OBJECT_NAME":"STARLINK-1451","MEAN_ELEMENT_THEORY":"SGP4","SITE":"AFETR","TLE_LINE1":"1 45668U 20035M   22353.86723993  .00001273  00000-0  10429-3 0  9993","INCLINATION":"53.0552"},{"MEAN_ANOMALY":"286.7886","COUNTRY_CODE":"US","TLE_LINE2":"2 45669  53.0566 306.3637 0001553  73.3273 286.7886 15.06403148141467","OBJECT_ID":"2020-035N","SEMIMAJOR_AXIS":"6925.339","EPHEMERIS_TYPE":"0","ECCENTRICITY":"0.00015530","DECAY_DATE":null,"CLASSIFICATION_TYPE":"U","MEAN_MOTION_DOT":"0.00003037","GP_ID":"220964666","FILE":"3711774","PERIAPSIS":"546.128","MEAN_MOTION":"15.06403148","LAUNCH_DATE":"2020-06-04","REF_FRAME":"TEME","MEAN_MOTION_DDOT":"0.0000000000000","RA_OF_ASC_NODE":"306.3637","CENTER_NAME":"EARTH","REV_AT_EPOCH":"14146","TIME_SYSTEM":"UTC","OBJECT_TYPE":"PAYLOAD","BSTAR":"0.00022265000000","NORAD_CAT_ID":"45669","APOAPSIS":"548.279","EPOCH":"2022-12-19T14:01:29.996544","ARG_OF_PERICENTER":"73.3273","PERIOD":"95.592","MEAN_ELEMENT_THEORY":"SGP4","OBJECT_NAME":"STARLINK-1452","RCS_SIZE":"LARGE","ELEMENT_SET_NO":"999","TLE_LINE1":"1 45669U 20035N   22353.58437496  .00003037  00000-0  22265-3 0  9994","SITE":"AFETR","INCLINATION":"53.0566"},{"TIME_SYSTEM":"UTC","CENTER_NAME":"EARTH","REV_AT_EPOCH":"14168","MEAN_MOTION_DDOT":"0.0000000000000","RA_OF_ASC_NODE":"279.0893","REF_FRAME":"TEME","LAUNCH_DATE":"2020-06-04","FILE":"3711365","GP_ID":"220931752","PERIAPSIS":"546.213","MEAN_MOTION":"15.06388335","MEAN_MOTION_DOT":"0.00002915","CLASSIFICATION_TYPE":"U","DECAY_DATE":null,"ECCENTRICITY":"0.00014960","EPHEMERIS_TYPE":"0","SEMIMAJOR_AXIS":"6925.384","OBJECT_ID":"2020-035P","TLE_LINE2":"2 45670  53.0551 279.0893 0001496  79.9658 280.1499 15.06388335141680","MEAN_ANOMALY":"280.1499","COUNTRY_CODE":"US","INCLINATION":"53.0551","TLE_LINE1":"1 45670U 20035P   22352.97896514  .00002915  00000-0  21458-3 0  9995","SITE":"AFETR","ELEMENT_SET_NO":"999","RCS_SIZE":"LARGE","OBJECT_NAME":"STARLINK-1453","MEAN_ELEMENT_THEORY":"SGP4","PERIOD":"95.593","ARG_OF_PERICENTER":"79.9658","EPOCH":"2022-12-18T23:29:42.588096","APOAPSIS":"548.285","NORAD_CAT_ID":"45670","BSTAR":"0.00021458000000","OBJECT_TYPE":"PAYLOAD"},{"INCLINATION":"53.0562","TLE_LINE1":"1 45671U 20035Q   22353.58806460  .00002532  00000-0  18884-3 0  9999","SITE":"AFETR","MEAN_ELEMENT_THEORY":"SGP4","OBJECT_NAME":"STARLINK-1454","PERIOD":"95.592","ELEMENT_SET_NO":"999","RCS_SIZE":"LARGE","NORAD_CAT_ID":"45671","APOAPSIS":"548.210","ARG_OF_PERICENTER":"67.7767","EPOCH":"2022-12-19T14:06:48.781440","OBJECT_TYPE":"PAYLOAD","BSTAR":"0.00018884000000","TIME_SYSTEM":"UTC","REV_AT_EPOCH":"14145","CENTER_NAME":"EARTH","LAUNCH_DATE":"2020-06-04","MEAN_MOTION_DDOT":"0.0000000000000","RA_OF_ASC_NODE":"306.3463","REF_FRAME":"TEME","CLASSIFICATION_TYPE":"U","GP_ID":"220965166","FILE":"3711774","PERIAPSIS":"546.209","MEAN_MOTION":"15.06401306","MEAN_MOTION_DOT":"0.00002532","ECCENTRICITY":"0.00014450","DECAY_DATE":null,"SEMIMAJOR_AXIS":"6925.345","OBJECT_ID":"2020-035Q","EPHEMERIS_TYPE":"0","TLE_LINE2":"2 45671  53.0562 306.3463 0001445  67.7767 292.3375 15.06401306141457","COUNTRY_CODE":"US","MEAN_ANOMALY":"292.3375"}];
